{
  "norad_id": 60200,
  "name": "STARLINK-32002",
  "history": [
    {
      "epoch": "2026-03-28T16:30:06.600960",
      "apogee_km": 475.9716794073847,
      "perigee_km": 474.49710801831225,
      "latitude_deg": 11.982741614994136,
      "longitude_deg": -93.99266560003161,
      "semi_major_axis_km": 6853.371393712848,
      "eccentricity": 0.00010758,
      "inclination_deg": 53.1607,
      "raan_deg": 234.299,
      "arg_perigee_deg": 66.5065,
      "mean_anomaly_deg": 293.6048,
      "mean_motion_rev_day": 15.30193528
    }
  ]
}